[{"OBJECT_NAME":"STARLINK-36744","OBJECT_ID":"2026-039B","EPOCH":"2026-03-23T12:00:02.998944","MEAN_MOTION":15.47510845,"ECCENTRICITY":0.0001995,"INCLINATION":42.9996,"RA_OF_ASC_NODE":331.6824,"ARG_OF_PERICENTER":268.2494,"MEAN_ANOMALY":209.9249,"EPHEMERIS_TYPE":0,"CLASSIFICATION_TYPE":"U","NORAD_CAT_ID":67987,"ELEMENT_SET_NO":999,"REV_AT_EPOCH":509,"BSTAR":-0.040333,"MEAN_MOTION_DOT":-0.0190634,"MEAN_MOTION_DDOT":0},{"OBJECT_NAME":"STARLINK-36734","OBJECT_ID":"2026-039C","EPOCH":"2026-03-22T09:42:00.541152","MEAN_MOTION":15.50576115,"ECCENTRICITY":0.00020558,"INCLINATION":42.9978,"RA_OF_ASC_NODE":339.2604,"ARG_OF_PERICENTER":291.5146,"MEAN_ANOMALY":68.5495,"EPHEMERIS_TYPE":0,"CLASSIFICATION_TYPE":"U","NORAD_CAT_ID":67988,"ELEMENT_SET_NO":999,"REV_AT_EPOCH":362,"BSTAR":0.0021734428,"MEAN_MOTION_DOT":0.0012928,"MEAN_MOTION_DDOT":0},{"OBJECT_NAME":"STARLINK-36957","OBJECT_ID":"2026-039D","EPOCH":"2026-03-23T12:00:02.998944","MEAN_MOTION":15.50143316,"ECCENTRICITY":0.0001339,"INCLINATION":42.9999,"RA_OF_ASC_NODE":331.7252,"ARG_OF_PERICENTER":262.031,"MEAN_ANOMALY":197.8159,"EPHEMERIS_TYPE":0,"CLASSIFICATION_TYPE":"U","NORAD_CAT_ID":67989,"ELEMENT_SET_NO":999,"REV_AT_EPOCH":509,"BSTAR":-0.037273,"MEAN_MOTION_DOT":-0.01930903,"MEAN_MOTION_DDOT":0},{"OBJECT_NAME":"STARLINK-36951","OBJECT_ID":"2026-039E","EPOCH":"2026-03-23T12:00:02.998944","MEAN_MOTION":15.50540426,"ECCENTRICITY":0.0001683,"INCLINATION":43,"RA_OF_ASC_NODE":331.9831,"ARG_OF_PERICENTER":258.558,"MEAN_ANOMALY":97.2481,"EPHEMERIS_TYPE":0,"CLASSIFICATION_TYPE":"U","NORAD_CAT_ID":67990,"ELEMENT_SET_NO":999,"REV_AT_EPOCH":509,"BSTAR":0.00068,"MEAN_MOTION_DOT":0.00039698,"MEAN_MOTION_DDOT":0},{"OBJECT_NAME":"STARLINK-36941","OBJECT_ID":"2026-039F","EPOCH":"2026-03-22T23:35:56.932512","MEAN_MOTION":15.50620076,"ECCENTRICITY":0.00017525,"INCLINATION":42.9998,"RA_OF_ASC_NODE":335.8638,"ARG_OF_PERICENTER":269.8781,"MEAN_ANOMALY":90.1878,"EPHEMERIS_TYPE":0,"CLASSIFICATION_TYPE":"U","NORAD_CAT_ID":67991,"ELEMENT_SET_NO":999,"REV_AT_EPOCH":371,"BSTAR":0.0014871922,"MEAN_MOTION_DOT":0.00088021,"MEAN_MOTION_DDOT":0},{"OBJECT_NAME":"STARLINK-36950","OBJECT_ID":"2026-039G","EPOCH":"2026-03-23T09:45:52.663392","MEAN_MOTION":15.50642685,"ECCENTRICITY":0.0001485,"INCLINATION":42.9987,"RA_OF_ASC_NODE":333.0094,"ARG_OF_PERICENTER":274.1741,"MEAN_ANOMALY":85.8949,"EPHEMERIS_TYPE":0,"CLASSIFICATION_TYPE":"U","NORAD_CAT_ID":67992,"ELEMENT_SET_NO":999,"REV_AT_EPOCH":378,"BSTAR":0.0012325,"MEAN_MOTION_DOT":0.00072805,"MEAN_MOTION_DDOT":0},{"OBJECT_NAME":"STARLINK-36975","OBJECT_ID":"2026-039H","EPOCH":"2026-03-23T09:35:46.223520","MEAN_MOTION":15.50663463,"ECCENTRICITY":0.0001802,"INCLINATION":42.9998,"RA_OF_ASC_NODE":332.953,"ARG_OF_PERICENTER":278.5129,"MEAN_ANOMALY":81.5527,"EPHEMERIS_TYPE":0,"CLASSIFICATION_TYPE":"U","NORAD_CAT_ID":67993,"ELEMENT_SET_NO":999,"REV_AT_EPOCH":378,"BSTAR":0.0015252,"MEAN_MOTION_DOT":0.00090449,"MEAN_MOTION_DDOT":0},{"OBJECT_NAME":"STARLINK-36993","OBJECT_ID":"2026-039J","EPOCH":"2026-03-23T12:00:02.998944","MEAN_MOTION":15.50537052,"ECCENTRICITY":0.0001786,"INCLINATION":43,"RA_OF_ASC_NODE":331.658,"ARG_OF_PERICENTER":263.0447,"MEAN_ANOMALY":223.738,"EPHEMERIS_TYPE":0,"CLASSIFICATION_TYPE":"U","NORAD_CAT_ID":67994,"ELEMENT_SET_NO":999,"REV_AT_EPOCH":509,"BSTAR":0.00059577,"MEAN_MOTION_DOT":0.00034712,"MEAN_MOTION_DDOT":0},{"OBJECT_NAME":"STARLINK-36968","OBJECT_ID":"2026-039K","EPOCH":"2026-03-23T09:56:40.659936","MEAN_MOTION":15.50747897,"ECCENTRICITY":0.0001413,"INCLINATION":43.001,"RA_OF_ASC_NODE":333.0685,"ARG_OF_PERICENTER":276.8496,"MEAN_ANOMALY":83.2204,"EPHEMERIS_TYPE":0,"CLASSIFICATION_TYPE":"U","NORAD_CAT_ID":67995,"ELEMENT_SET_NO":999,"REV_AT_EPOCH":378,"BSTAR":0.0018339,"MEAN_MOTION_DOT":0.00109415,"MEAN_MOTION_DDOT":0},{"OBJECT_NAME":"STARLINK-36979","OBJECT_ID":"2026-039L","EPOCH":"2026-03-23T12:00:02.998944","MEAN_MOTION":15.50548695,"ECCENTRICITY":0.0001769,"INCLINATION":42.9999,"RA_OF_ASC_NODE":331.5411,"ARG_OF_PERICENTER":250.0045,"MEAN_ANOMALY":283.936,"EPHEMERIS_TYPE":0,"CLASSIFICATION_TYPE":"U","NORAD_CAT_ID":67996,"ELEMENT_SET_NO":999,"REV_AT_EPOCH":509,"BSTAR":0.00052111,"MEAN_MOTION_DOT":0.00030315,"MEAN_MOTION_DDOT":0},{"OBJECT_NAME":"STARLINK-36994","OBJECT_ID":"2026-039M","EPOCH":"2026-03-23T12:00:02.998944","MEAN_MOTION":15.50525063,"ECCENTRICITY":0.0002008,"INCLINATION":43.0003,"RA_OF_ASC_NODE":331.9048,"ARG_OF_PERICENTER":252.5164,"MEAN_ANOMALY":134.0836,"EPHEMERIS_TYPE":0,"CLASSIFICATION_TYPE":"U","NORAD_CAT_ID":67997,"ELEMENT_SET_NO":999,"REV_AT_EPOCH":509,"BSTAR":0.000795,"MEAN_MOTION_DOT":0.00046486,"MEAN_MOTION_DDOT":0},{"OBJECT_NAME":"STARLINK-36988","OBJECT_ID":"2026-039N","EPOCH":"2026-03-23T12:00:02.998944","MEAN_MOTION":15.50536591,"ECCENTRICITY":0.0001637,"INCLINATION":43.0002,"RA_OF_ASC_NODE":331.8461,"ARG_OF_PERICENTER":269.1578,"MEAN_ANOMALY":141.1784,"EPHEMERIS_TYPE":0,"CLASSIFICATION_TYPE":"U","NORAD_CAT_ID":67998,"ELEMENT_SET_NO":999,"REV_AT_EPOCH":509,"BSTAR":0.00066536,"MEAN_MOTION_DOT":0.00038827,"MEAN_MOTION_DDOT":0},{"OBJECT_NAME":"STARLINK-36926","OBJECT_ID":"2026-039P","EPOCH":"2026-03-23T12:00:02.998944","MEAN_MOTION":15.50535626,"ECCENTRICITY":0.0001615,"INCLINATION":43.0002,"RA_OF_ASC_NODE":331.8814,"ARG_OF_PERICENTER":258.8522,"MEAN_ANOMALY":137.0622,"EPHEMERIS_TYPE":0,"CLASSIFICATION_TYPE":"U","NORAD_CAT_ID":67999,"ELEMENT_SET_NO":999,"REV_AT_EPOCH":509,"BSTAR":0.00076731,"MEAN_MOTION_DOT":0.00044862,"MEAN_MOTION_DDOT":0},{"OBJECT_NAME":"STARLINK-36931","OBJECT_ID":"2026-039Q","EPOCH":"2026-03-23T12:00:02.998944","MEAN_MOTION":15.50516642,"ECCENTRICITY":0.0001983,"INCLINATION":43.0002,"RA_OF_ASC_NODE":331.5992,"ARG_OF_PERICENTER":276.5066,"MEAN_ANOMALY":233.469,"EPHEMERIS_TYPE":0,"CLASSIFICATION_TYPE":"U","NORAD_CAT_ID":68000,"ELEMENT_SET_NO":999,"REV_AT_EPOCH":509,"BSTAR":0.00072778,"MEAN_MOTION_DOT":0.00042492,"MEAN_MOTION_DDOT":0},{"OBJECT_NAME":"STARLINK-36903","OBJECT_ID":"2026-039R","EPOCH":"2026-03-23T12:00:02.998944","MEAN_MOTION":15.48780494,"ECCENTRICITY":0.0002021,"INCLINATION":43,"RA_OF_ASC_NODE":331.87,"ARG_OF_PERICENTER":253.5225,"MEAN_ANOMALY":146.4,"EPHEMERIS_TYPE":0,"CLASSIFICATION_TYPE":"U","NORAD_CAT_ID":68001,"ELEMENT_SET_NO":999,"REV_AT_EPOCH":509,"BSTAR":-0.039479,"MEAN_MOTION_DOT":-0.01946832,"MEAN_MOTION_DDOT":0},{"OBJECT_NAME":"STARLINK-36898","OBJECT_ID":"2026-039S","EPOCH":"2026-03-23T12:00:02.998944","MEAN_MOTION":15.47277336,"ECCENTRICITY":0.0001432,"INCLINATION":42.9998,"RA_OF_ASC_NODE":331.6535,"ARG_OF_PERICENTER":265.5288,"MEAN_ANOMALY":222.2319,"EPHEMERIS_TYPE":0,"CLASSIFICATION_TYPE":"U","NORAD_CAT_ID":68002,"ELEMENT_SET_NO":999,"REV_AT_EPOCH":509,"BSTAR":-0.041078,"MEAN_MOTION_DOT":-0.01923446,"MEAN_MOTION_DDOT":0},{"OBJECT_NAME":"STARLINK-36862","OBJECT_ID":"2026-039T","EPOCH":"2026-03-23T12:00:02.998944","MEAN_MOTION":15.45855291,"ECCENTRICITY":0.0001904,"INCLINATION":43.0007,"RA_OF_ASC_NODE":331.7878,"ARG_OF_PERICENTER":268.4485,"MEAN_ANOMALY":165.3817,"EPHEMERIS_TYPE":0,"CLASSIFICATION_TYPE":"U","NORAD_CAT_ID":68003,"ELEMENT_SET_NO":999,"REV_AT_EPOCH":509,"BSTAR":-0.042168,"MEAN_MOTION_DOT":-0.01883617,"MEAN_MOTION_DDOT":0}]
