STARLINK-36744          
1 67987U 26039B   26082.50003471 -.01906340  00000+0 -40333-1 0  9993
2 67987  42.9996 331.6824 0001995 268.2494 209.9249 15.47510845  5093
STARLINK-36734          
1 67988U 26039C   26081.40417293  .00129280  00000+0  21734-2 0  9995
2 67988  42.9978 339.2604 0002055 291.5146  68.5495 15.50576115  3620
STARLINK-36957          
1 67989U 26039D   26082.50003471 -.01930903  00000+0 -37273-1 0  9996
2 67989  42.9999 331.7252 0001339 262.0310 197.8159 15.50143316  5099
STARLINK-36951          
1 67990U 26039E   26082.50003471  .00039698  00000+0  68000-3 0  9990
2 67990  43.0000 331.9831 0001683 258.5580  97.2481 15.50540426  5096
STARLINK-36941          
1 67991U 26039F   26081.98329783  .00088021  00000+0  14872-2 0  9990
2 67991  42.9998 335.8638 0001752 269.8781  90.1878 15.50620076  3713
STARLINK-36950          
1 67992U 26039G   26082.40685953  .00072805  00000+0  12325-2 0  9997
2 67992  42.9987 333.0094 0001485 274.1741  85.8949 15.50642685  3783
STARLINK-36975          
1 67993U 26039H   26082.39984055  .00090449  00000+0  15252-2 0  9997
2 67993  42.9998 332.9530 0001802 278.5129  81.5527 15.50663463  3782
STARLINK-36993          
1 67994U 26039J   26082.50003471  .00034712  00000+0  59577-3 0  9995
2 67994  43.0000 331.6580 0001786 263.0447 223.7380 15.50537052  5090
STARLINK-36968          
1 67995U 26039K   26082.41435949  .00109415  00000+0  18339-2 0  9998
2 67995  43.0010 333.0685 0001413 276.8496  83.2204 15.50747897  3785
STARLINK-36979          
1 67996U 26039L   26082.50003471  .00030315  00000+0  52111-3 0  9999
2 67996  42.9999 331.5411 0001769 250.0045 283.9360 15.50548695  5091
STARLINK-36994          
1 67997U 26039M   26082.50003471  .00046486  00000+0  79500-3 0  9997
2 67997  43.0003 331.9048 0002008 252.5164 134.0836 15.50525063  5094
STARLINK-36988          
1 67998U 26039N   26082.50003471  .00038827  00000+0  66536-3 0  9993
2 67998  43.0002 331.8461 0001637 269.1578 141.1784 15.50536591  5091
STARLINK-36926          
1 67999U 26039P   26082.50003471  .00044862  00000+0  76731-3 0  9998
2 67999  43.0002 331.8814 0001615 258.8522 137.0622 15.50535626  5097
STARLINK-36931          
1 68000U 26039Q   26082.50003471  .00042492  00000+0  72778-3 0  9996
2 68000  43.0002 331.5992 0001983 276.5066 233.4690 15.50516642  5096
STARLINK-36903          
1 68001U 26039R   26082.50003471 -.01946832  00000+0 -39479-1 0  9990
2 68001  43.0000 331.8700 0002021 253.5225 146.4000 15.48780494  5094
STARLINK-36898          
1 68002U 26039S   26082.50003471 -.01923446  00000+0 -41078-1 0  9995
2 68002  42.9998 331.6535 0001432 265.5288 222.2319 15.47277336  5091
STARLINK-36862          
1 68003U 26039T   26082.50003471 -.01883617  00000+0 -42168-1 0  9992
2 68003  43.0007 331.7878 0001904 268.4485 165.3817 15.45855291  5091
